! Propagated orbits
format  = 'OEF2.0'       ! file format
rectype = 'ML'           ! record type (1L/ML)
refsys  = ECLM J2000     ! default reference system
END_OF_HEADER
! Orbital elements of object 410777 (computed with least squares fit)
410777
! Equinoctial elements: a, e*sin(LP), e*cos(LP), tan(i/2)*sin(LN), tan(i/2)*cos(LN), mean long.
 EQU   1.1637782486920814E+00  -0.460716631756474   0.175394621626805    0.004463589122727    0.026941546822908  25.1665943862599
 MJD     57387.000000000 TDT
 MAG  22.134  0.150
! Non-grav parameters: model used, actual number in use, dimension
 LSP   0  0    6
! RMS    2.65698E-09   3.20559E-08   6.05511E-08   6.00888E-09   4.54617E-08   5.80240E-06
! EIG   1.51390E-10   3.78990E-09   1.52436E-08   4.00561E-08   4.56455E-08   1.14564E-07
! WEA   0.01617  -0.23486   0.43725  -0.00518   0.03969   0.86706
 COV   7.059532447456202E-18 -7.282692869597414E-17  1.493019108371159E-16
 COV  -1.903841414732846E-18 -2.109053373493004E-17  8.631125311685617E-15
 COV   1.027578303125849E-15 -1.608403258898327E-15  4.097492211621269E-17
 COV  -2.372404412703997E-16 -1.405622796026792E-13  3.666432760290658E-15
 COV   2.601850991566826E-17  7.296133586442673E-17  2.479927675735803E-13
 COV   3.610664267518132E-17  1.196820973767623E-16 -4.904218272046406E-15
 COV   2.066767258709149E-15  2.327583594434301E-14  3.366789596407790E-11
 NOR   4.344816321656630E+19  2.257844413290016E+18 -1.256180685869800E+18
 NOR  -7.941065551685221E+17  7.148191967090985E+17  6.931007964248599E+15
 NOR   1.240759567890279E+17 -6.265373197936107E+16 -5.460719809322562E+16
 NOR   3.853391587493472E+16  3.660941256147295E+14  3.793993745302100E+16
 NOR   1.631051714251358E+16 -2.001076722169335E+16 -2.027917308949552E+14
 NOR   8.014592950019667E+16 -1.823424871881838E+16 -1.202658709538684E+14
 NOR   1.268453287880240E+16  1.135971995993328E+14  1.178975642980981E+12
